NAVSTAR 77 (USA 289)    
1 43873U 18109A   23330.16773476  .00000046  00000+0  00000+0 0  9994
2 43873  55.2239 129.0911 0027480 190.0678 166.7357  2.00571423 36332
